[{"OBJECT_NAME":"STARLINK-4337","OBJECT_ID":"2022-077L","EPOCH":"2026-03-09T22:58:53.318784","MEAN_MOTION":15.01260784,"ECCENTRICITY":0.00014702,"INCLINATION":97.6023,"RA_OF_ASC_NODE":250.4841,"ARG_OF_PERICENTER":88.4337,"MEAN_ANOMALY":271.7056,"EPHEMERIS_TYPE":0,"CLASSIFICATION_TYPE":"U","NORAD_CAT_ID":53053,"ELEMENT_SET_NO":999,"REV_AT_EPOCH":20095,"BSTAR":4.005131e-6,"MEAN_MOTION_DOT":-7.0e-8,"MEAN_MOTION_DDOT":0},{"OBJECT_NAME":"PEGASUS DEB","OBJECT_ID":"1994-029AFE","EPOCH":"2026-03-09T22:01:13.596672","MEAN_MOTION":14.67197331,"ECCENTRICITY":0.01795257,"INCLINATION":81.944,"RA_OF_ASC_NODE":137.8868,"ARG_OF_PERICENTER":239.0776,"MEAN_ANOMALY":119.2676,"EPHEMERIS_TYPE":0,"CLASSIFICATION_TYPE":"U","NORAD_CAT_ID":39319,"ELEMENT_SET_NO":999,"REV_AT_EPOCH":26377,"BSTAR":0.00029247934,"MEAN_MOTION_DOT":2.119e-5,"MEAN_MOTION_DDOT":0}]
